STARLINK-5823           
1 55786U 23028AX  26068.75256177 -.00000080  00000+0  11127-5 0  9993
2 55786  70.0009 204.3750 0002457 270.7505  89.3373 14.98328941167033
ION SCV-022             
1 66682U 25276S   26068.74520243  .00001950  00000+0  17277-3 0  9990
2 66682  97.5376 142.9780 0004539 154.7099 205.4346 14.97347265 15192
